IRIDIUM 138             
1 43071U 17083B   24189.70086849  .00000038  00000+0  65850-5 0  9999
2 43071  86.3946 258.2074 0002197 103.8636 256.2804 14.34215958342443
IRIDIUM 116             
1 43072U 17083C   24189.25054640  .00000067  00000+0  16723-4 0  9990
2 43072  86.3957 258.6757 0002355  92.4702 267.6763 14.34218048342411
IRIDIUM 130             
1 43073U 17083D   24189.63744424  .00000062  00000+0  15004-4 0  9995
2 43073  86.3966 258.7203 0002347  93.6290 266.5174 14.34218186342412
IRIDIUM 151             
1 43074U 17083E   24189.26323084 -.00000026  00000+0 -16220-4 0  9993
2 43074  86.3958 258.7120 0001959  92.1301 268.0119 14.34217838342382
IRIDIUM 134             
1 43075U 17083F   24189.58036144  .00000083  00000+0  22507-4 0  9993
2 43075  86.3960 258.5780 0002483  93.8366 266.3114 14.34218135342396
IRIDIUM 137             
1 43076U 17083G   24189.59304593  .00000345  00000+0  11604-3 0  9997
2 43076  86.3961 258.6510 0002151  82.3396 277.8044 14.34218557342463
IRIDIUM 141             
1 43077U 17083H   24190.21462256  .00000349  00000+0  11761-3 0  9998
2 43077  86.3955 258.2621 0002187  98.4746 261.6698 14.34218653342555
IRIDIUM 153             
1 43078U 17083J   24189.39934434  .00000243  00000+0  79589-4 0  9994
2 43078  86.3969 227.0709 0002094 106.3961 253.7465 14.34217571343549
IRIDIUM 131             
1 43079U 17083K   24189.57401133  .00000346  00000+0  11635-3 0  9991
2 43079  86.3963 258.6685 0002106  91.8041 268.3396 14.34216214342398
IRIDIUM 144             
1 43249U 18030A   24189.33592006  .00000144  00000+0  44392-4 0  9990
2 43249  86.3966 227.0436 0002579  89.8607 270.2885 14.34217272328397
IRIDIUM 149             
1 43250U 18030B   24190.17948335  .00000291  00000+0  96678-4 0  9993
2 43250  86.3963 226.6662 0002428  84.1711 275.9761 14.34216180328537
IRIDIUM 157             
1 43251U 18030C   24189.64036216  .00000102  00000+0  29459-4 0  9994
2 43251  86.3967 226.9287 0001984  90.9481 269.1942 14.34216863328436
IRIDIUM 140             
1 43252U 18030D   24189.58962226  .00000065  00000+0  16177-4 0  9998
2 43252  86.3968 226.9646 0002708  94.2441 265.9065 14.34216233328481
IRIDIUM 145             
1 43253U 18030E   24189.57693890  .00000032  00000+0  42646-5 0  9991
2 43253  86.3967 226.9433 0002649  85.2067 274.9431 14.34217704328417
IRIDIUM 146             
1 43254U 18030F   24189.62767866  .00000088  00000+0  24381-4 0  9999
2 43254  86.3966 226.9370 0002444  88.5887 271.5588 14.34218204328430
IRIDIUM 148             
1 43255U 18030G   24189.59596553  .00000049  00000+0  10426-4 0  9991
2 43255  86.3967 226.9824 0002166  88.5081 271.6363 14.34217811328472
IRIDIUM 142             
1 43256U 18030H   24189.35494718  .00000197  00000+0  63424-4 0  9996
2 43256  86.3965 226.9981 0002549  86.2044 273.9443 14.34218624328392
IRIDIUM 150             
1 43257U 18030J   24189.60230734  .00000159  00000+0  49774-4 0  9991
2 43257  86.3966 226.9879 0002596  89.3911 270.7583 14.34218963328474
IRIDIUM 143             
1 43258U 18030K   24189.58328146  .00000044  00000+0  85706-5 0  9993
2 43258  86.3972 227.0606 0002589  86.8267 273.3224 14.34217573328387
IRIDIUM 161             
1 43478U 18047C   24189.63717390  .00000480  00000+0  13678-3 0  9995
2 43478  86.4486  24.9931 0002253  84.2852 275.8605 14.43286302322792
IRIDIUM 152             
1 43479U 18047D   24190.11414545  .00000057  00000+0  13395-4 0  9994
2 43479  86.3960  24.6531 0002178  89.5457 270.5988 14.34218220320863
IRIDIUM 147             
1 43480U 18047E   24190.05071931  .00000139  00000+0  42592-4 0  9999
2 43480  86.3962  24.6723 0002085  90.7118 269.4316 14.34218628320847
IRIDIUM 110             
1 43481U 18047F   24189.28960767  .00000287  00000+0  95274-4 0  9996
2 43481  86.3964  25.0640 0001893  98.1359 262.0052 14.34219552320728
IRIDIUM 162             
1 43482U 18047G   24190.04688081  .00000522  00000+0  14929-3 0  9998
2 43482  86.4484  24.7215 0002284  89.8347 270.3116 14.43268994322842
IRIDIUM 160             
1 43569U 18061A   24189.44474989  .00000160  00000+0  50170-4 0  9999
2 43569  86.3982 353.3821 0001702  90.1507 269.9884 14.34218235311646
IRIDIUM 166             
1 43570U 18061B   24189.81896421 -.00000083  00000+0 -36722-4 0  9994
2 43570  86.3980 353.1861 0002289  94.9549 265.1909 14.34217572311725
IRIDIUM 158             
1 43571U 18061C   24189.85701923 -.00000013  00000+0 -11820-4 0  9996
2 43571  86.3983 353.1792 0002219  89.3156 270.8294 14.34216580311703
IRIDIUM 165             
1 43572U 18061D   24189.39401074  .00000064  00000+0  15628-4 0  9994
2 43572  86.3982 353.4057 0002256  88.4630 271.6824 14.34217821311659
IRIDIUM 155             
1 43573U 18061E   24189.84433616  .00000381  00000+0  12909-3 0  9992
2 43573  86.3979 353.1216 0002394  92.9633 267.1836 14.34216722311692
IRIDIUM 154             
1 43574U 18061F   24189.82530675  .00000390  00000+0  13235-3 0  9997
2 43574  86.3984 353.2282 0001883  91.5847 268.5564 14.34218861311731
IRIDIUM 163             
1 43575U 18061G   24189.59697283 -.00000096  00000+0 -41382-4 0  9991
2 43575  86.3977 353.2616 0002029  92.4976 267.6452 14.34217495311672
